[{"OBJECT_NAME":"ASTROCAST-0403","OBJECT_ID":"2023-001DG","EPOCH":"2026-03-09T19:45:35.762976","MEAN_MOTION":15.28004949,"ECCENTRICITY":0.00047706,"INCLINATION":97.5604,"RA_OF_ASC_NODE":161.3228,"ARG_OF_PERICENTER":338.0704,"MEAN_ANOMALY":22.033,"EPHEMERIS_TYPE":0,"CLASSIFICATION_TYPE":"U","NORAD_CAT_ID":55111,"ELEMENT_SET_NO":999,"REV_AT_EPOCH":12937,"BSTAR":0.0005131719,"MEAN_MOTION_DOT":0.00013959,"MEAN_MOTION_DDOT":0},{"OBJECT_NAME":"STARLINK-32330","OBJECT_ID":"2024-202F","EPOCH":"2026-03-09T12:07:55.818624","MEAN_MOTION":15.2757175,"ECCENTRICITY":0.00015872,"INCLINATION":42.9996,"RA_OF_ASC_NODE":238.6698,"ARG_OF_PERICENTER":280.5602,"MEAN_ANOMALY":79.507,"EPHEMERIS_TYPE":0,"CLASSIFICATION_TYPE":"U","NORAD_CAT_ID":61850,"ELEMENT_SET_NO":999,"REV_AT_EPOCH":7531,"BSTAR":1.8173231e-5,"MEAN_MOTION_DOT":2.38e-6,"MEAN_MOTION_DDOT":0}]
